[{"OBJECT_NAME":"STARLINK-1047","OBJECT_ID":"2019-074AR","EPOCH":"2026-03-09T11:54:40.842720","MEAN_MOTION":15.32581056,"ECCENTRICITY":0.00022261,"INCLINATION":53.069,"RA_OF_ASC_NODE":146.9116,"ARG_OF_PERICENTER":203.7253,"MEAN_ANOMALY":156.3646,"EPHEMERIS_TYPE":0,"CLASSIFICATION_TYPE":"U","NORAD_CAT_ID":44752,"ELEMENT_SET_NO":999,"REV_AT_EPOCH":34931,"BSTAR":0.00039384285,"MEAN_MOTION_DOT":0.00012216,"MEAN_MOTION_DDOT":0},{"OBJECT_NAME":"STARLINK-35742","OBJECT_ID":"2025-247M","EPOCH":"2026-03-09T14:58:48.835776","MEAN_MOTION":15.30189377,"ECCENTRICITY":0.0001058,"INCLINATION":53.1577,"RA_OF_ASC_NODE":191.7465,"ARG_OF_PERICENTER":61.117,"MEAN_ANOMALY":298.9937,"EPHEMERIS_TYPE":0,"CLASSIFICATION_TYPE":"U","NORAD_CAT_ID":66276,"ELEMENT_SET_NO":999,"REV_AT_EPOCH":2107,"BSTAR":0.0015947,"MEAN_MOTION_DOT":0.00047156,"MEAN_MOTION_DDOT":0}]
